1 25475U 98053A   16195.81638857  .00000156  00000-0  10873-3 0  9990,2 25475  45.0099 134.2668 0002532 309.6041  50.4581 14.32339740929736
1 25475U 98053A   16196.86261651  .00000191  00000-0  12143-3 0  9991,2 25475  45.0100 129.3527 0002454 313.7728  46.2915 14.32340647929887
1 25475U 98053A   16197.90884385 +.00000139 +00000-0 +10260-3 0  9992,2 25475 045.0101 124.4386 0002366 317.7242 042.3421 14.32341133929761
1 25475U 98053A   16198.11808927  .00000136  00000-0  10135-3 0  9992,2 25475  45.0101 123.4558 0002351 318.8736  41.1932 14.32341294930062
1 25475U 98053A   16198.88532245 +.00000133 +00000-0 +10025-3 0  9998,2 25475 045.0101 119.8520 0002281 322.0925 037.9760 14.32341803929908
1 25475U 98053A   16199.23406468 +.00000140 +00000-0 +10308-3 0  9997,2 25475 045.0101 118.2140 0002257 323.7163 036.3530 14.32342090930228
1 25475U 98053A   16200.90802669 +.00000067 +00000-0 +76130-4 0  9991,2 25475 045.0102 110.3511 0002128 330.4585 029.6140 14.32342880930199
1 25475U 98053A   16201.88450420 +.00000065 +00000-0 +75514-4 0  9996,2 25475 045.0103 105.7645 0002043 334.8600 025.2146 14.32343476930334
1 25475U 98053A   16202.16349770  .00000066  00000-0  75856-4 0  9993,2 25475  45.0103 104.4541 0002023 336.1708  23.9044 14.32343647930643
1 25475U 98053A   16202.86098118 +.00000091 +00000-0 +84871-4 0  9992,2 25475 045.0104 101.1779 0001958 339.1169 020.9597 14.32344207930475
1 25475U 98053A   16203.20972278  .00000100  00000-0  88388-4 0  9997,2 25475  45.0104  99.5398 0001909 341.0966  18.9809 14.32344489930795
1 25475U 98053A   16203.90720587 +.00000120 +00000-0 +95574-4 0  9995,2 25475 045.0105 096.2636 0001856 343.7913 016.2873 14.32345002930623
1 25475U 98053A   16204.81393368  .00000131  00000-0  99434-4 0  9990,2 25475  45.0106  92.0047 0001769 347.9637  12.1167 14.32345542931021
1 25475U 98053A   16204.88368191 +.00000130 +00000-0 +99312-4 0  9997,2 25475 045.0106 091.6771 0001768 348.2750 011.8054 14.32345598930761
1 25475U 98053A   16205.86015732 +.00000135 +00000-0 +10098-3 0  9994,2 25475 045.0107 087.0904 0001636 354.0163 006.0663 14.32346247930906
1 25475U 98053A   16206.13915023  .00000132  00000-0  99940-4 0  9998,2 25475  45.0106  85.7800 0001610 355.6430   4.4402 14.32346409931219
1 25475U 98053A   16206.90638062 +.00000108 +00000-0 +91115-4 0  9997,2 25475 045.0106 082.1762 0001532 359.5477 000.5367 14.32346749931050
1 25475U 98053A   16207.46436603  .00000138  00000-0  10213-3 0  9998,2 25475  45.0106  79.5553 0001474   2.6187 357.4667 14.32347319931407
1 25475U 98053A   16207.88285513 +.00000121 +00000-0 +96059-4 0  9991,2 25475 045.0106 077.5896 0001443 005.0146 355.0715 14.32347513931193
1 25475U 98053A   16208.78958153  .00000062  00000-0  74143-4 0  9992,2 25475  45.0106  73.3306 0001348  11.0946 348.9929 14.32347726931590
1 25475U 98053A   16208.85932967 +.00000065 +00000-0 +75565-4 0  9997,2 25475 045.0106 073.0030 0001335 011.6644 348.4232 14.32347800931335
1 25475U 98053A   16209.90555206 +.00000046 +00000-0 +68357-4 0  9991,2 25475 045.0106 068.0886 0001229 019.1092 340.9800 14.32348233931485
1 25475U 98053A   16209.97530023  .00000045  00000-0  68115-4 0  9999,2 25475  45.0106  67.7610 0001228  19.5616 340.5277 14.32348262931768
1 25475U 98053A   16210.60303348 +.00000035 +00000-0 +64465-4 0  9992,2 25475 045.0106 064.8123 0001173 023.7667 336.3233 14.32348493931588
1 25475U 98053A   16211.02152236  .00000019  00000-0  58578-4 0  9997,2 25475  45.0106  62.8467 0001143  27.0168 333.0738 14.32348570931914
1 25475U 98053A   16211.85849981 +.00000031 +00000-0 +63021-4 0  9991,2 25475 045.0107 058.9151 0001082 033.1961 326.8953 14.32348943931768
1 25475U 98053A   16212.76522519  .00000035  00000-0  64535-4 0  9992,2 25475  45.0108  54.6560 0001010  40.9789 319.1133 14.32349251932164
1 25475U 98053A   16212.90472141 +.00000040 +00000-0 +66097-4 0  9994,2 25475 045.0108 054.0008 0001001 042.4206 317.6718 14.32349301931916
1 25475U 98053A   16213.88119464 +.00000053 +00000-0 +70933-4 0  9996,2 25475 045.0109 049.4141 0000937 051.7595 308.3335 14.32349636932053
1 25475U 98053A   16214.02069079  .00000055  00000-0  71652-4 0  9990,2 25475  45.0109  48.7589 0000929  53.2774 306.8157 14.32349692932347
1 25475U 98053A   16214.92741577 +.00000052 +00000-0 +70616-4 0  9995,2 25475 045.0110 044.4999 0000881 063.0052 297.0884 14.32349900932207
1 25475U 98053A   16215.48540021  .00000042  00000-0  66913-4 0  9992,2 25475  45.0110  41.8789 0000851  69.3376 290.7561 14.32350005932558
1 25475U 98053A   16215.90388863 +.00000044 +00000-0 +67660-4 0  9995,2 25475 045.0110 039.9132 0000847 074.5266 285.5673 14.32350133932344
1 25475U 98053A   16216.53162095  .00000013  00000-0  56197-4 0  9991,2 25475  45.0111  36.9647 0000829  82.0422 278.0518 14.32350196932705
1 25475U 98053A   16216.88036112 +.00000020 +00000-0 +58976-4 0  9994,2 25475 045.0111 035.3266 0000830 086.0372 274.0569 14.32350367932482
1 25475U 98053A   16217.71733725 -.00000009  00000-0  48413-4 0  9994,2 25475  45.0111  31.3952 0000823  98.6981 261.3958 14.32350559932874
1 25475U 98053A   16218.83330524 -.00000001  00000-0  51325-4 0  9996,2 25475  45.0111  26.1534 0000850 111.4518 248.6419 14.32351026933031
1 25475U 98053A   16218.90305321 -.00000001 +00000-0 +51327-4 0  9993,2 25475 045.0111 025.8258 0000852 112.3455 247.7481 14.32351057932775
1 25475U 98053A   16219.87952493  .00000014  00000-0  56846-4 0  9992,2 25475  45.0112  21.2391 0000886 122.5786 237.5146 14.32351479933180
1 25475U 98053A   16220.85599635 +.00000034 +00000-0 +64136-4 0  9990,2 25475 045.0113 016.6524 0000934 132.4814 227.6111 14.32351901933051
1 25475U 98053A   16221.48372781  .00000047  00000-0  68864-4 0  9997,2 25475  45.0113  13.7038 0000969 138.7933 221.2986 14.32352162933418
1 25475U 98053A   16221.90221541 +.00000056 +00000-0 +71920-4 0  9998,2 25475 045.0114 011.7382 0001002 142.3910 217.7006 14.32352343933205
1 25475U 98053A   16222.80893828  .00000079  00000-0  80688-4 0  9997,2 25475  45.0114   7.4792 0001069 150.8141 209.2765 14.32352749933607
1 25475U 98053A   16222.87868612 +.00000083 +00000-0 +81824-4 0  9995,2 25475 045.0114 007.1516 0001076 151.3256 208.7650 14.32352806933341
1 25475U 98053A   16223.85515652  .00000110  00000-0  91714-4 0  9997,2 25475  45.0114   2.5650 0001151 158.7199 201.3695 14.32353313933757
1 25475U 98053A   16224.83162635 +.00000117 +00000-0 +94629-4 0  9990,2 25475 045.0115 357.9784 0001239 166.0859 194.0022 14.32353859933628
1 25475U 98053A   16225.45935676  .00000128  00000-0  98639-4 0  9999,2 25475  45.0115 355.0298 0001296 170.6006 189.4864 14.32354265933988
1 25475U 98053A   16225.80809586 +.00000119 +00000-0 +95293-4 0  9991,2 25475 045.0115 353.3919 0001325 172.4209 187.6657 14.32354410933765
1 25475U 98053A   16226.50557385  .00000127  00000-0  98200-4 0  9996,2 25475  45.0116 350.1157 0001388 176.9280 183.1575 14.32354866934139
1 25475U 98053A   16226.78456497 +.00000132 +00000-0 +10002-3 0  9997,2 25475 045.0115 348.8053 0001416 178.5021 181.5830 14.32355064933901
1 25475U 98053A   16227.76103378 +.00000102 +00000-0 +88943-4 0  9990,2 25475 045.0115 344.2188 0001507 184.3275 175.7558 14.32355470934316
1 25475U 98053A   16228.73750226 +.00000106 +00000-0 +90233-4 0  9997,2 25475 045.0115 339.6323 0001594 189.8815 170.2000 14.32356005934183
1 25475U 98053A   16229.43497954  .00000102  00000-0  88931-4 0  9999,2 25475  45.0114 336.3560 0001662 193.5607 166.5194 14.32356320934559
1 25475U 98053A   16229.71396748 +.00000109 +00000-0 +91388-4 0  9996,2 25475 045.0114 335.0457 0001696 194.2914 165.7885 14.32364470934324
1 25475U 98053A   16230.48118807  .00000037  00000-0  65073-4 0  9992,2 25475  45.0114 331.4419 0001774 198.3918 161.6864 14.32364512934709
1 25475U 98053A   16230.69043001 +.00000112 +00000-0 +92421-4 0  9999,2 25475 045.0113 330.4591 0001789 199.1206 160.9573 14.32364681934462
1 25475U 98053A   16231.66689215  .00000121  00000-0  95727-4 0  9992,2 25475  45.0112 325.8725 0001874 203.5639 156.5122 14.32365168934870
1 25475U 98053A   16232.71310107  .00000118  00000-0  94786-4 0  9990,2 25475  45.0111 320.9581 0001969 208.1614 151.9125 14.32365665935026
1 25475U 98053A   16233.68956226 +.00000112 +00000-0 +92674-4 0  9993,2 25475 045.0110 316.3715 0002054 212.6036 147.4684 14.32366189934893
1 25475U 98053A   16234.45678156  .00000090  00000-0  84674-4 0  9998,2 25475  45.0110 312.7676 0002118 216.1752 143.8951 14.32366523935276
1 25475U 98053A   16234.66602313 +.00000090 +00000-0 +84444-4 0  9998,2 25475 045.0109 311.7848 0002124 216.7038 143.3662 14.32366659935032
1 25475U 98053A   16235.64248363  .00000076  00000-0  79337-4 0  9997,2 25475  45.0108 307.1981 0002194 220.5948 139.4735 14.32367202935445
1 25475U 98053A   16236.61894375 +.00000075 +00000-0 +78920-4 0  9991,2 25475 045.0107 302.6115 0002264 224.9137 135.1526 14.32367797935315
1 25475U 98053A   16237.17692085  .00000077  00000-0  79869-4 0  9992,2 25475  45.0106 299.9905 0002298 227.2160 132.8493 14.32368116935669
1 25475U 98053A   16237.59540346 +.00000087 +00000-0 +83545-4 0  9997,2 25475 045.0105 298.0249 0002326 229.0952 130.9693 14.32368439935456
1 25475U 98053A   16238.36262160  .00000093  00000-0  85714-4 0  9995,2 25475  45.0104 294.4209 0002380 232.1219 127.9412 14.32368863935830
1 25475U 98053A   16238.57186277 +.00000106 +00000-0 +90544-4 0  9994,2 25475 045.0103 293.4381 0002385 232.8450 127.2178 14.32369072935596
1 25475U 98053A   16239.47857476  .00000118  00000-0  94587-4 0  9994,2 25475  45.0102 289.1789 0002438 236.4885 123.5729 14.32369557935993
1 25475U 98053A   16239.61806880 +.00000118 +00000-0 +94635-4 0  9997,2 25475 045.0101 288.5237 0002446 237.0521 123.0090 14.32369651935740
1 25475U 98053A   16240.52478043  .00000130  00000-0  99177-4 0  9995,2 25475  45.0099 284.2644 0002490 240.7506 119.3091 14.32370152936146
1 25475U 98053A   16240.59452744 +.00000130 +00000-0 +99135-4 0  9996,2 25475 045.0099 283.9368 0002489 240.8103 119.2494 14.32370205935882
